[{"OBJECT_NAME":"STARLINK-31966","OBJECT_ID":"2024-106Y","EPOCH":"2026-03-09T02:50:10.643136","MEAN_MOTION":15.27555294,"ECCENTRICITY":3.292e-5,"INCLINATION":43.0015,"RA_OF_ASC_NODE":335.8992,"ARG_OF_PERICENTER":185.6983,"MEAN_ANOMALY":174.3865,"EPHEMERIS_TYPE":0,"CLASSIFICATION_TYPE":"U","NORAD_CAT_ID":59944,"ELEMENT_SET_NO":999,"REV_AT_EPOCH":10048,"BSTAR":-0.00012114449,"MEAN_MOTION_DOT":-3.591e-5,"MEAN_MOTION_DDOT":0},{"OBJECT_NAME":"FENGYUN 1C DEB","OBJECT_ID":"1999-025EJQ","EPOCH":"2026-03-08T21:27:56.444256","MEAN_MOTION":15.23229897,"ECCENTRICITY":0.00101559,"INCLINATION":98.6645,"RA_OF_ASC_NODE":227.592,"ARG_OF_PERICENTER":263.6857,"MEAN_ANOMALY":96.3219,"EPHEMERIS_TYPE":0,"CLASSIFICATION_TYPE":"U","NORAD_CAT_ID":37470,"ELEMENT_SET_NO":999,"REV_AT_EPOCH":66762,"BSTAR":0.011057202,"MEAN_MOTION_DOT":0.00271626,"MEAN_MOTION_DDOT":0}]
